NOAA 1 [-]              
1 04793U 70106A   19024.88653993 -.00000041  00000-0  26417-4 0  9994
2 04793 101.7242  95.2306 0031933 205.4891 283.3379 12.53988414202212
NOAA 2 (ITOS-D) [-]     
1 06235U 72082A   19024.95079583 -.00000047  00000-0 -14400-4 0  9993
2 06235 101.7748 352.5695 0003889 297.4333  96.1480 12.53110862116937
NOAA 3 [-]              
1 06920U 73086A   19024.93247990 -.00000055  00000-0 -74083-4 0  9998
2 06920 102.0305 355.5826 0006651  61.7960 324.9752 12.40345199 47114
NOAA 4 [-]              
1 07529U 74089A   19024.94638378 -.00000026  00000-0  12160-3 0  9997
2 07529 101.7322 354.2588 0008849 327.2619  79.8515 12.53125339 21524
NOAA 5 [-]              
1 09057U 76077A   19024.93573497 -.00000050  00000-0 -48814-4 0  9997
2 09057 101.9116 359.7104 0009745 276.8561  92.4800 12.37756755920373
TIROS N [P]             
1 11060U 78096A   19025.81947770 -.00000009  00000-0  17278-4 0  9997
2 11060  98.8126  84.3721 0011653 100.8631 259.3856 14.18222177296273
NOAA 6 [P]              
1 11416U 79057A   19024.92970196  .00000006  00000-0  18182-4 0  9990
2 11416  98.6285  19.3870 0009647 320.4507  39.5973 14.33514510 63921
NOAA 7 [-]              
1 12553U 81059A   19024.98619231 -.00000052  00000-0 -27170-5 0  9995
2 12553  99.0956  28.9767 0012075  36.6742  16.3597 14.17252751942458
NOAA 8 [-]              
1 13923U 83022A   19024.91801302 -.00000007  00000-0  14422-4 0  9998
2 13923  98.5683  12.6775 0014236 238.5506 121.4284 14.28663605865419
NOAA 9 [P]              
1 15427U 84123A   19024.94402694 -.00000007  00000-0  18965-4 0  9992
2 15427  98.8752 334.2641 0015876  87.1709 314.5681 14.16057694761412
NOAA 10 [-]             
1 16969U 86073A   19024.97701557 -.00000020  00000-0  90955-5 0  9998
2 16969  98.4730  25.7291 0012065 356.6461  56.3412 14.28061953683923
NOAA 11 [-]             
1 19531U 88089A   19024.72062264 -.00000019  00000-0  11318-4 0  9996
2 19531  98.4686  66.4406 0011832 147.6123 212.5780 14.15236305565468
NOAA 12 [-]             
1 21263U 91032A   19025.99513259 -.00000036  00000-0  29759-5 0  9996
2 21263  98.5249  45.3184 0013781   8.2637 351.8767 14.25884642440496
NOAA 13 [-]             
1 22739U 93050A   19024.97469003 -.00000038  00000-0  17937-5 0  9998
2 22739  98.4868  55.4097 0008537 298.2395  61.7916 14.12721922312286
NOAA 14 [-]             
1 23455U 94089A   19025.94303406 -.00000045  00000-0 -13404-5 0  9993
2 23455  98.6180  92.4755 0008363 277.0686  82.9536 14.14125337241901
NOAA 15 [B]             
1 25338U 98030A   19024.93478070 -.00000002  00000-0  17981-4 0  9998
2 25338  98.7581  46.3765 0009637 306.8598  53.1697 14.25892451 76360
NOAA 16 [-]             
1 26536U 00055A   19024.93988901 -.00000014  00000-0  15734-4 0  9995
2 26536  98.7929  99.5592 0011581  96.2114 264.0378 14.13221733945786
NOAA 17 [-]             
1 27453U 02032A   19025.96245392 -.00000004  00000-0  16388-4 0  9990
2 27453  98.5190 340.4357 0010604 283.0099  76.9896 14.25030813862472
NOAA 18 [B]             
1 28654U 05018A   19024.98108944  .00000065  00000-0  60162-4 0  9998
2 28654  99.1180  69.6320 0013770 221.7080 138.3042 14.12400079705088
NOAA 19 [+]             
1 33591U 09005A   19024.95618551  .00000053  00000-0  53948-4 0  9992
2 33591  99.1678  12.6689 0014882  65.9693 294.3034 14.12330663513212
SUOMI NPP [+]           
1 37849U 11061A   19025.85736228  .00000007  00000-0  23947-4 0  9994
2 37849  98.7234 326.0892 0000565  70.9996 354.7392 14.19555238375463
NOAA 20 [+]             
1 43013U 17073A   19025.95010176  .00000007  00000-0  24241-4 0  9999
2 43013  98.7491 326.2096 0001018  62.2366 297.8913 14.19537735 61511
